ONEWEB-0431             
1 51630U 22012J   23317.14755086 -.00000265  00000+0 -79645-3 0  9992
2 51630  87.8937 224.3477 0001009  90.2917 269.8326 13.10369024 86601
ONEWEB-0434             
1 51631U 22012K   23316.81953816  .00000634  00000+0  17791-2 0  9998
2 51631  87.8926 224.4172 0001645  64.5038 295.6259 13.10374017 85257
ONEWEB-0435             
1 51632U 22012L   23316.75128986  .00000366  00000+0  10119-2 0  9993
2 51632  87.8927 224.4203 0001394  59.7877 300.3388 13.10372513 85236
ONEWEB-0436             
1 51633U 22012M   23317.13688682  .00000084  00000+0  18399-3 0  9997
2 51633  87.9237 194.1064 0001488  67.9776 292.1513 13.17649809 90251
ONEWEB-0438             
1 51634U 22012N   23317.11682766  .00000631  00000+0  17700-2 0  9995
2 51634  87.8928 224.3488 0001894  68.8146 291.3184 13.10376538 86604
ONEWEB-0439             
1 51635U 22012P   23316.81467213 -.00000348  00000+0 -10317-2 0  9994
2 51635  87.8928 224.3916 0001918  71.5051 288.6285 13.10378703 85251
ONEWEB-0442             
1 51636U 22012Q   23317.35624617  .00000084  00000+0  18281-3 0  9992
2 51636  87.9243 194.0893 0002303  93.0393 267.1002 13.17652056 90277
ONEWEB-0443             
1 51637U 22012R   23317.14744517  .00000042  00000+0  75699-4 0  9993
2 51637  87.9242 194.1355 0001681  55.9665 304.1626 13.17648405 90297
